#aV2007  1 14  0  0   .00000000      96 DD+AD WGS84 FIT  NGA
## 1410       .00000000   900.00000000 54114  .0000000000000
+   30     1  2  3  4  5  6  7  8  9 10 11 12 13 14 16 17 18
+         19 20 21 22 23 24 25 26 27 28 29 30 31  0  0  0  0
+          0  0  0  0  0  0  0  0  0  0  0  0  0  0  0  0  0
+          0  0  0  0  0  0  0  0  0  0  0  0  0  0  0  0  0
+          0  0  0  0  0  0  0  0  0  0  0  0  0  0  0  0  0
++         0  0  0  0  0  0  0  0  0  0  0  0  0  0  0  0  0
++         0  0  0  0  0  0  0  0  0  0  0  0  0  0  0  0  0
++         0  0  0  0  0  0  0  0  0  0  0  0  0  0  0  0  0
++         0  0  0  0  0  0  0  0  0  0  0  0  0  0  0  0  0
++         0  0  0  0  0  0  0  0  0  0  0  0  0  0  0  0  0
%c cc cc ccc ccc cccc cccc cccc cccc ccccc ccccc ccccc ccccc
%c cc cc ccc ccc cccc cccc cccc cccc ccccc ccccc ccccc ccccc
%f  0.0000000  0.000000000  0.00000000000  0.000000000000000
%f  0.0000000  0.000000000  0.00000000000  0.000000000000000
%i    0    0    0    0      0      0      0      0         0
%i    0    0    0    0      0      0      0      0         0
/*      NGA, ST. LOUIS,MO.                                  
/*   EPHEMERIS COMPUTED FROM  3 DAYS OF DATA                
/* CCCCCCCCCCCCCCCCCCCCCCCCCCCCCCCCCCCCCCCCCCCCCCCCCCCCCCCCC
/* CCCCCCCCCCCCCCCCCCCCCCCCCCCCCCCCCCCCCCCCCCCCCCCCCCCCCCCCC
*  2007  1 14  0 45   .00000000                                                 
P  1 -15458.777267  -2305.459753 -21277.306023    101.271990                    
V  1  -8003.922557 -26228.363874   8513.308723       .022586                    
P  2  20511.844589  -8654.975266 -14533.293011     73.051731                    
V  2  -9544.878278  15676.070908 -23429.343363       .034458                    
P  3 -16087.666070   2738.354467  20792.800667     -2.606419                    
V  3 -11380.060193 -24451.929034  -5204.151491       .060778                    
P  4  15903.059984   4502.390566 -20916.044519    354.302257                    
V  4 -16570.178216  20561.587946  -7833.080578       .028229                    
P  5   9035.565484 -14402.414934 -20605.728833      7.638082                    
V  5  25594.234035   3093.180506   9313.269553       .141805                    
P  6  -5643.719681 -25163.212566  -6051.978473    456.658268                    
V  6   6405.828832   5956.166362 -29877.382479      -.227546                    
P  7  -8192.627103 -24897.706162  -3662.327413    447.224449                    
V  7   5458.256197   3129.694637 -30756.049912      -.107010                    
P  8   7674.828869  13235.412184  21535.952939    -93.081164                    
V  8 -18947.753733  20147.576303  -6020.348224      -.011785                    
P  9  14953.493988 -21757.276917  -1794.134276     53.027426                    
V  9   3269.033047    476.230702  31881.537146       .016982                    
P 10  24658.280690  -2247.110692   9940.128378     95.851289                    
V 10  12060.269313   4317.662282 -28325.737044       .006221                    
P 11 -11713.938780  23575.901831  -2160.364779      3.452916                    
V 11  -5749.137466   -236.061312  30234.608795       .015082                    
P 12  10507.849782 -12874.674852 -20605.792937    -64.643594                    
V 12  25924.927967   5128.663565  10002.356631       .065717                    
P 13   6148.661755  25605.753380  -3736.541875    132.513094                    
V 13  -3098.732142  -3816.405014 -31972.224709       .039208                    
P 14 -15094.102673 -17999.858922 -12378.815121      4.655998                    
V 14  -3791.575085 -15405.876346  26774.302607       .012194                    
P 16 -26175.626684  -1261.339777   4801.144586    112.055533                    
V 16  -5432.651196  -3568.412310 -30949.767575       .038474                    
P 17  15718.682798  17637.797605 -12260.062210     82.561674                    
V 17   3264.934230  15341.210420  26151.245135      -.014478                    
P 18 -10942.557068 -15747.858157  18642.187064   -253.882506                    
V 18  23086.937374   3440.055721  16258.778256      -.000480                    
P 19 -11044.628034  13025.938290  20412.998369     56.305123                    
V 19  -8532.859563 -24311.543570  11039.525987       .044387                    
P 20  -7595.872911  14080.103598 -21287.116842    -21.989637                    
V 20 -26439.111496  -4684.430148   6405.520942      -.000929                    
P 21  -2455.960730 -18236.324967  19049.196633     68.322914                    
V 21  17412.331198 -16973.615939 -14627.192807       .011625                    
P 22 -21442.098142 -12056.580367  10198.911790    161.802281                    
V 22  13003.243400     89.233646  27861.235720       .021174                    
P 23  -1740.774068  22494.354065 -13938.725557    145.891320                    
V 23  -8144.650843 -15765.541636 -24749.625849       .013476                    
P 24  19297.601677 -18275.510033  -2778.050267     68.410512                    
V 24   -558.969193   4535.738341 -31214.429393       .032430                    
P 25 -18089.992077   3087.051633 -18855.400789    383.379183                    
V 25  12665.749774 -21320.237454 -15151.354712      -.107977                    
P 26  10778.276216 -11100.675745  21067.665014    -92.814636                    
V 26   9735.883353  26022.071985   9115.901932      -.177408                    
P 27    801.015800  20102.913385  17835.345617     88.439502                    
V 27 -13921.946898  16469.400667 -18885.767907       .020437                    
P 28  18830.268604  13320.331860  13788.090255      9.649960                    
V 28 -16904.981045  -1285.073318  24545.317753      -.008531                    
P 29  13092.059151  -6871.017388  22273.187052    312.305279                    
V 29  10091.197179  25772.173284   2368.298520       .166456                    
P 30  -3178.965018 -15924.833522 -21336.803141     22.463986                    
V 30  26285.242903   2802.112426  -5984.720626       .010844                    
P 31 -17102.586297  -1242.597965 -20096.264668     -4.655443                    
V 31  15556.516268 -20797.748678 -11788.578323       .055173                    
EOF
